NORAD_CAT_ID,OBJECT_NAME,OBJECT_TYPE,EPOCH,MEAN_MOTION,ECCENTRICITY,INCLINATION,RA_OF_ASC_NODE,ARG_OF_PERICENTER,MEAN_ANOMALY,BSTAR,MEAN_MOTION_DOT,MEAN_MOTION_DDOT,TLE_LINE0,TLE_LINE1,TLE_LINE2,SEMIMAJOR_AXIS,PERIOD,APOGEE,PERIGEE,DECAYED
52476.0,STARLINK-3835,PAYLOAD,2024-01-04 04:49:20,15.08839547,0.0001647,53.2184,20.4494,102.7897,257.3279,-3.7744e-05,-8.89e-06,0.0,0 STARLINK-3835,1 52476U 22049AB  24004.20093728 -.00000889  00000-0 -37744-4 0  9998,2 52476  53.2184  20.4494 0001647 102.7897 257.3279 15.08839547 92459,6917.882,95.438,540.886,538.607,0.0
52476.0,STARLINK-3835,PAYLOAD,2024-01-04 06:24:44,15.08838082,0.0001604,53.2181,20.1521,93.665,266.4525,6.0581e-06,-1.92e-06,0.0,0 STARLINK-3835,1 52476U 22049AB  24004.26717712 -.00000192  00000-0  60581-5 0  9992,2 52476  53.2181  20.1521 0001604  93.6650 266.4525 15.08838082 93541,6917.886,95.438,540.861,538.642,0.0
52476.0,STARLINK-3835,PAYLOAD,2024-01-05 06:15:31,15.08829013,0.0001627,53.218,15.6917,101.6058,258.5117,0.00023074,3.385e-05,0.0,0 STARLINK-3835,1 52476U 22049AB  24005.26077842  .00003385  00000-0  23074-3 0  9996,2 52476  53.2180  15.6917 0001627 101.6058 258.5117 15.08829013 92615,6917.914,95.438,540.905,538.653,0.0
52476.0,STARLINK-3835,PAYLOAD,2024-01-06 07:41:41,15.0884246,0.0001572,53.2178,10.9336,87.9203,272.197,0.00010018,1.307e-05,0.0,0 STARLINK-3835,1 52476U 22049AB  24006.32061616  .00001307  00000-0  10018-3 0  9992,2 52476  53.2178  10.9336 0001572  87.9203 272.1970 15.08842460 92779,6917.873,95.437,540.825,538.65,0.0
52476.0,STARLINK-3835,PAYLOAD,2024-01-07 09:07:51,15.08844028,0.000157,53.218,6.1758,91.803,268.3142,5.608e-05,6.05e-06,0.0,0 STARLINK-3835,1 52476U 22049AB  24007.38045564  .00000605  00000-0  56080-4 0  9993,2 52476  53.2180   6.1758 0001570  91.8030 268.3142 15.08844028 92935,6917.868,95.437,540.819,538.647,0.0
52476.0,STARLINK-3835,PAYLOAD,2024-01-08 08:58:38,15.08847836,0.0001554,53.2181,1.713,99.2469,260.8699,5.2812e-05,5.53e-06,0.0,0 STARLINK-3835,1 52476U 22049AB  24008.37405178  .00000553  00000-0  52812-4 0  9995,2 52476  53.2181   1.7130 0001554  99.2469 260.8699 15.08847836 94162,6917.856,95.437,540.796,538.646,0.0
52476.0,STARLINK-3835,PAYLOAD,2024-01-09 04:03:16,15.08839421,0.0001509,53.2189,358.1383,101.3349,258.7812,3.2917e-05,2.36e-06,0.0,0 STARLINK-3835,1 52476U 22049AB  24009.16893770  .00000236  00000-0  32917-4 0  9994,2 52476  53.2189 358.1383 0001509 101.3349 258.7812 15.08839421 93209,6917.882,95.438,540.791,538.703,0.0
52476.0,STARLINK-3835,PAYLOAD,2024-01-09 08:49:25,15.08840947,0.0001507,53.2185,357.2498,100.0561,260.0602,4.5908e-05,4.43e-06,0.0,0 STARLINK-3835,1 52476U 22049AB  24009.36765694  .00000443  00000-0  45908-4 0  9993,2 52476  53.2185 357.2498 0001507 100.0561 260.0602 15.08840947 94313,6917.877,95.437,540.785,538.7,0.0
52476.0,STARLINK-3835,PAYLOAD,2024-01-10 05:29:25,15.08849584,0.0001562,53.2172,353.3864,89.9847,270.1324,0.00010765,1.426e-05,0.0,0 STARLINK-3835,1 52476U 22049AB  24010.22877110  .00001426  00000-0  10765-3 0  9991,2 52476  53.2172 353.3864 0001562  89.9847 270.1324 15.08849584 93369,6917.851,95.437,540.797,538.636,0.0
52476.0,STARLINK-3835,PAYLOAD,2024-01-10 08:40:12,15.08849362,0.0001533,53.2172,352.7921,102.8437,257.2727,0.00012196,1.654e-05,0.0,0 STARLINK-3835,1 52476U 22049AB  24010.36125000  .00001654  00000-0  12196-3 0  9993,2 52476  53.2172 352.7921 0001533 102.8437 257.2727 15.08849362 94463,6917.852,95.437,540.777,538.656,0.0
52476.0,STARLINK-3835,PAYLOAD,2024-01-11 05:20:13,15.08840623,0.0001471,53.218,348.9207,104.3069,255.8087,9.452e-05,1.217e-05,0.0,0 STARLINK-3835,1 52476U 22049AB  24011.22237833  .00001217  00000-0  94520-4 0  9994,2 52476  53.2180 348.9207 0001471 104.3069 255.8087 15.08840623 93514,6917.878,95.438,540.761,538.726,0.0
52476.0,STARLINK-3835,PAYLOAD,2024-01-11 08:30:59,15.08842468,0.0001467,53.2177,348.3294,100.177,259.9387,8.93e-05,1.134e-05,0.0,0 STARLINK-3835,1 52476U 22049AB  24011.35485811  .00001134  00000-0  89300-4 0  9997,2 52476  53.2177 348.3294 0001467 100.1770 259.9387 15.08842468 94617,6917.873,95.437,540.753,538.723,0.0
52476.0,STARLINK-3835,PAYLOAD,2024-01-11 21:14:05,15.08833269,0.0001662,53.2182,345.9485,121.748,238.3674,-4.4754e-05,-1e-05,0.0,0 STARLINK-3835,1 52476U 22049AB  24011.88478228 -.00001000  00000-0 -44754-4 0  9997,2 52476  53.2182 345.9485 0001662 121.7480 238.3674 15.08833269 94699,6917.901,95.438,540.916,538.616,0.0
52476.0,STARLINK-3835,PAYLOAD,2024-01-12 03:35:37,15.08838852,0.000166,53.2182,344.7621,105.1052,255.0124,-5.1714e-05,-1.111e-05,0.0,0 STARLINK-3835,1 52476U 22049AB  24012.14973974 -.00001111  00000-0 -51714-4 0  9992,2 52476  53.2182 344.7621 0001660 105.1052 255.0124 15.08838852 94731,6917.884,95.438,540.897,538.601,0.0
52476.0,STARLINK-3835,PAYLOAD,2024-01-13 08:12:34,15.08842189,0.0001867,53.2184,339.4116,120.7634,239.3542,0.00014018,1.944e-05,0.0,0 STARLINK-3835,1 52476U 22049AB  24013.34206201  .00001944  00000-0  14018-3 0  9994,2 52476  53.2184 339.4116 0001867 120.7634 239.3542 15.08842189 93838,6917.874,95.437,541.03,538.447,0.0
52476.0,STARLINK-3835,PAYLOAD,2024-01-14 04:52:35,15.08841868,0.0001635,53.2181,335.5454,84.4204,275.6974,0.00012271,1.666e-05,0.0,0 STARLINK-3835,1 52476U 22049AB  24014.20318626  .00001666  00000-0  12271-3 0  9995,2 52476  53.2181 335.5454 0001635  84.4204 275.6974 15.08841868 93968,6917.875,95.437,540.871,538.609,0.0
52476.0,STARLINK-3835,PAYLOAD,2024-01-14 06:27:58,15.08847444,0.0001589,53.2182,335.2468,97.908,262.2092,0.00016723,2.375e-05,0.0,0 STARLINK-3835,1 52476U 22049AB  24014.26942200  .00002375  00000-0  16723-3 0  9996,2 52476  53.2182 335.2468 0001589  97.9080 262.2092 15.08847444 95051,6917.858,95.437,540.822,538.623,0.0
52476.0,STARLINK-3835,PAYLOAD,2024-01-15 03:07:59,15.08844353,0.0001921,53.2196,331.3806,109.3655,250.7545,0.00014674,2.048e-05,0.0,0 STARLINK-3835,1 52476U 22049AB  24015.13054499  .00002048  00000-0  14674-3 0  9997,2 52476  53.2196 331.3806 0001921 109.3655 250.7545 15.08844353 94101,6917.867,95.437,541.061,538.403,0.0
52476.0,STARLINK-3835,PAYLOAD,2024-01-15 04:43:21,15.08856999,0.0001737,53.2199,331.0833,94.0367,266.0824,0.00034173,5.157e-05,0.0,0 STARLINK-3835,1 52476U 22049AB  24015.19678065  .00005157  00000-0  34173-3 0  9994,2 52476  53.2199 331.0833 0001737  94.0367 266.0824 15.08856999 94116,6917.828,95.436,540.895,538.492,0.0
52476.0,STARLINK-3835,PAYLOAD,2024-01-15 23:48:00,15.08838854,0.0001485,53.2175,327.5189,106.1389,253.9767,-7.1203e-05,-1.421e-05,0.0,0 STARLINK-3835,1 52476U 22049AB  24015.99166780 -.00001421  00000-0 -71203-4 0  9996,2 52476  53.2175 327.5189 0001485 106.1389 253.9767 15.08838854 94237,6917.884,95.438,540.776,538.722,0.0
52476.0,STARLINK-3835,PAYLOAD,2024-01-16 06:09:32,15.08842939,0.0001503,53.2173,326.3306,101.2396,258.8765,2.7202e-05,1.45e-06,0.0,0 STARLINK-3835,1 52476U 22049AB  24016.25662685  .00000145  00000-0  27202-4 0  9991,2 52476  53.2173 326.3306 0001503 101.2396 258.8765 15.08842939 95353,6917.871,95.437,540.776,538.697,0.0
52476.0,STARLINK-3835,PAYLOAD,2024-01-17 02:49:32,15.08854154,0.0001592,53.2173,322.469,84.341,275.7764,0.00010539,1.39e-05,0.0,0 STARLINK-3835,1 52476U 22049AB  24017.11774093  .00001390  00000-0  10539-3 0  9991,2 52476  53.2173 322.4690 0001592  84.3410 275.7764 15.08854154 94406,6917.837,95.437,540.803,538.601,0.0
52476.0,STARLINK-3835,PAYLOAD,2024-01-18 02:40:20,15.08839224,0.0001478,53.2167,318.0049,94.2488,265.8673,8.5267e-05,1.069e-05,0.0,0 STARLINK-3835,1 52476U 22049AB  24018.11135141  .00001069  00000-0  85267-4 0  9991,2 52476  53.2167 318.0049 0001478  94.2488 265.8673 15.08839224 94552,6917.883,95.438,540.77,538.725,0.0
52476.0,STARLINK-3835,PAYLOAD,2024-01-18 05:51:06,15.08841456,0.0001461,53.2166,317.4082,97.3346,262.7812,0.00011665,1.569e-05,0.0,0 STARLINK-3835,1 52476U 22049AB  24018.24383010  .00001569  00000-0  11665-3 0  9990,2 52476  53.2166 317.4082 0001461  97.3346 262.7812 15.08841456 95653,6917.876,95.437,540.752,538.73,0.0
52476.0,STARLINK-3835,PAYLOAD,2024-01-19 02:31:07,15.08846004,0.0001769,53.2179,313.5411,109.204,250.9143,0.00015451,2.172e-05,0.0,0 STARLINK-3835,1 52476U 22049AB  24019.10494828  .00002172  00000-0  15451-3 0  9994,2 52476  53.2179 313.5411 0001769 109.2040 250.9143 15.08846004 95789,6917.862,95.437,540.951,538.503,0.0
52476.0,STARLINK-3835,PAYLOAD,2024-01-19 20:00:22,15.08841149,0.0001565,53.2177,310.2691,92.4501,267.667,0.00015236,2.138e-05,0.0,0 STARLINK-3835,1 52476U 22049AB  24019.83359113  .00002138  00000-0  15236-3 0  9994,2 52476  53.2177 310.2691 0001565  92.4501 267.6670 15.08841149 94818,6917.877,95.437,540.825,538.659,0.0
52476.0,STARLINK-3835,PAYLOAD,2024-01-19 23:11:08,15.08841889,0.000176,53.218,309.6743,112.6316,247.4863,0.00013702,1.893e-05,0.0,0 STARLINK-3835,1 52476U 22049AB  24019.96606955  .00001893  00000-0  13702-3 0  9990,2 52476  53.2180 309.6743 0001760 112.6316 247.4863 15.08841889 95911,6917.875,95.437,540.957,538.522,0.0
52476.0,STARLINK-3835,PAYLOAD,2024-01-20 00:46:31,15.08841959,0.0001755,53.2183,309.3768,114.3436,245.7739,0.00012621,1.721e-05,0.0,0 STARLINK-3835,1 52476U 22049AB  24020.03230925  .00001721  00000-0  12621-3 0  9999,2 52476  53.2183 309.3768 0001755 114.3436 245.7739 15.08841959 95926,6917.874,95.437,540.953,538.525,0.0
52476.0,STARLINK-3835,PAYLOAD,2024-01-20 23:01:55,15.08840122,0.0001454,53.2169,305.2131,95.5491,264.5667,-7.0325e-05,-1.407e-05,0.0,0 STARLINK-3835,1 52476U 22049AB  24020.95967246 -.00001407  00000-0 -70325-4 0  9992,2 52476  53.2169 305.2131 0001454  95.5491 264.5667 15.08840122 96062,6917.88,95.438,540.751,538.739,0.0
52476.0,STARLINK-3835,PAYLOAD,2024-01-21 02:12:41,15.08845099,0.000141,53.2171,304.6223,80.4096,279.7055,-4.3207e-05,-9.76e-06,0.0,0 STARLINK-3835,1 52476U 22049AB  24021.09215084 -.00000976  00000-0 -43207-4 0  9993,2 52476  53.2171 304.6223 0001410  80.4096 279.7055 15.08845099 95006,6917.865,95.437,540.705,538.754,0.0
